[{"OBJECT_NAME":"STARLINK-2421","OBJECT_ID":"2021-027G","EPOCH":"2026-03-09T13:27:37.697472","MEAN_MOTION":15.3018961,"ECCENTRICITY":0.0001338,"INCLINATION":53.1619,"RA_OF_ASC_NODE":155.5447,"ARG_OF_PERICENTER":74.38,"MEAN_ANOMALY":285.7349,"EPHEMERIS_TYPE":0,"CLASSIFICATION_TYPE":"U","NORAD_CAT_ID":48098,"ELEMENT_SET_NO":999,"REV_AT_EPOCH":27263,"BSTAR":-3.0297e-5,"MEAN_MOTION_DOT":-1.256e-5,"MEAN_MOTION_DDOT":0},{"OBJECT_NAME":"CZ-6A DEB","OBJECT_ID":"2024-140RA","EPOCH":"2026-03-09T01:51:18.259488","MEAN_MOTION":15.31763252,"ECCENTRICITY":0.00411794,"INCLINATION":89.1856,"RA_OF_ASC_NODE":296.0787,"ARG_OF_PERICENTER":96.6516,"MEAN_ANOMALY":263.9425,"EPHEMERIS_TYPE":0,"CLASSIFICATION_TYPE":"U","NORAD_CAT_ID":61156,"ELEMENT_SET_NO":999,"REV_AT_EPOCH":8391,"BSTAR":0.0079173326,"MEAN_MOTION_DOT":0.00256788,"MEAN_MOTION_DDOT":0}]
